EUTELSAT 7A             
1 28187U 04008A   25304.28140672  .00000117  00000+0  00000+0 0  9999
2 28187   5.2455  74.7297 0000978 163.9556 123.2694  1.00272678 79055
EUTELSAT 174A           
1 28924U 05052A   25304.21812949  .00000023  00000+0  00000+0 0  9990
2 28924   3.6353  79.3520 0006331 140.6926  72.2931  1.00270408 50038
EUTELSAT HOTBIRD 13B    
1 29270U 06032A   25304.13558742  .00000167  00000+0  00000+0 0  9992
2 29270   1.0649  84.7284 0003647 127.7415 269.1545  1.00269666 45010
EUTELSAT HOTBIRD 13C    
1 33459U 08065A   25302.32591028 -.00000088  00000+0  00000+0 0  9990
2 33459   2.3523  81.9104 0006142 154.2398 266.6285  1.00271861 45032
EUTELSAT 36B            
1 36101U 09065A   25304.19362360  .00000122  00000+0  00000+0 0  9998
2 36101   0.0520  25.5344 0006137 197.3551 297.0815  1.00271919 58411
EUTELSAT KA-SAT 9A      
1 37258U 10069A   25303.54306685  .00000071  00000+0  00000+0 0  9997
2 37258   0.0602 317.2703 0002713 219.7931  66.6139  1.00268929 41703
EUTELSAT 7 WEST A       
1 37816U 11051A   25304.11076983 -.00000050  00000+0  00000+0 0  9996
2 37816   0.0724  27.3924 0006430 181.3526 223.5205  1.00271735 51580
EUTELSAT 16A            
1 37836U 11057A   25304.11536318  .00000114  00000+0  00000+0 0  9997
2 37836   0.0673  16.7112 0005632 207.7520 232.7509  1.00272198  5038
